ONEWEB-0520             
1 54138U 22138AB  25152.60534536  .00000025  00000+0  29943-4 0  9991
2 54138  87.9228  20.6089 0001636  94.3812 265.7508 13.19724228126626
ONEWEB-0521             
1 54139U 22138AC  25152.56270596  .00000019  00000+0  15114-4 0  9998
2 54139  87.9227  20.6053 0001839  74.9601 285.1736 13.19724985126564
ONEWEB-0522             
1 54140U 22138AD  25152.61799501  .00000024  00000+0  26727-4 0  9996
2 54140  87.9226  20.5956 0001831  86.2360 273.8983 13.19725740126610
ONEWEB-0523             
1 54141U 22138AE  25152.50412400  .00000060  00000+0  11669-3 0  9993
2 54141  87.9263 350.2576 0002561  75.8837 284.2580 13.20770948129059
ONEWEB-0524             
1 54142U 22138AF  25152.56883232  .00000110  00000+0  23910-3 0  9993
2 54142  87.9263 350.2466 0002728  96.6610 263.4834 13.20771042129061
ONEWEB-0525             
1 54143U 22138AG  25152.33367960  .00000062  00000+0  12232-3 0  9995
2 54143  87.9229  20.6703 0001605  91.3049 268.8267 13.19726113126598
ONEWEB-0526             
1 54144U 22138AH  25152.59430089  .00000022  00000+0  22875-4 0  9998
2 54144  87.9226  20.6074 0001809  86.1340 273.9999 13.19724842126607
ONEWEB-0529             
1 54145U 22138AJ  25152.59746179  .00000050  00000+0  92742-4 0  9990
2 54145  87.9234  20.6477 0001684  90.8757 269.2569 13.19725175126622
