<?xml version="1.0" encoding="UTF-8"?>
<ndm xmlns:xsi="http://www.w3.org/2001/XMLSchema-instance" xsi:noNamespaceSchemaLocation="https://sanaregistry.org/r/ndmxml_unqualified/ndmxml-2.0.0-master-2.0.xsd">
<omm id="CCSDS_OMM_VERS" version="2.0">
<header><CREATION_DATE/><ORIGINATOR/></header><body><segment><metadata><OBJECT_NAME>ONEWEB-0520</OBJECT_NAME><OBJECT_ID>2022-138AB</OBJECT_ID><CENTER_NAME>EARTH</CENTER_NAME><REF_FRAME>TEME</REF_FRAME><TIME_SYSTEM>UTC</TIME_SYSTEM><MEAN_ELEMENT_THEORY>SGP4</MEAN_ELEMENT_THEORY></metadata><data><meanElements><EPOCH>2025-06-01T14:31:41.839104</EPOCH><MEAN_MOTION>13.19724228</MEAN_MOTION><ECCENTRICITY>.0001636</ECCENTRICITY><INCLINATION>87.9228</INCLINATION><RA_OF_ASC_NODE>20.6089</RA_OF_ASC_NODE><ARG_OF_PERICENTER>94.3812</ARG_OF_PERICENTER><MEAN_ANOMALY>265.7508</MEAN_ANOMALY></meanElements><tleParameters><EPHEMERIS_TYPE>0</EPHEMERIS_TYPE><CLASSIFICATION_TYPE>U</CLASSIFICATION_TYPE><NORAD_CAT_ID>54138</NORAD_CAT_ID><ELEMENT_SET_NO>999</ELEMENT_SET_NO><REV_AT_EPOCH>12662</REV_AT_EPOCH><BSTAR>.29943E-4</BSTAR><MEAN_MOTION_DOT>.25E-6</MEAN_MOTION_DOT><MEAN_MOTION_DDOT>0</MEAN_MOTION_DDOT></tleParameters></data></segment></body></omm>
<omm id="CCSDS_OMM_VERS" version="2.0">
<header><CREATION_DATE/><ORIGINATOR/></header><body><segment><metadata><OBJECT_NAME>ONEWEB-0521</OBJECT_NAME><OBJECT_ID>2022-138AC</OBJECT_ID><CENTER_NAME>EARTH</CENTER_NAME><REF_FRAME>TEME</REF_FRAME><TIME_SYSTEM>UTC</TIME_SYSTEM><MEAN_ELEMENT_THEORY>SGP4</MEAN_ELEMENT_THEORY></metadata><data><meanElements><EPOCH>2025-06-01T13:30:17.794944</EPOCH><MEAN_MOTION>13.19724985</MEAN_MOTION><ECCENTRICITY>.0001839</ECCENTRICITY><INCLINATION>87.9227</INCLINATION><RA_OF_ASC_NODE>20.6053</RA_OF_ASC_NODE><ARG_OF_PERICENTER>74.9601</ARG_OF_PERICENTER><MEAN_ANOMALY>285.1736</MEAN_ANOMALY></meanElements><tleParameters><EPHEMERIS_TYPE>0</EPHEMERIS_TYPE><CLASSIFICATION_TYPE>U</CLASSIFICATION_TYPE><NORAD_CAT_ID>54139</NORAD_CAT_ID><ELEMENT_SET_NO>999</ELEMENT_SET_NO><REV_AT_EPOCH>12656</REV_AT_EPOCH><BSTAR>.15114E-4</BSTAR><MEAN_MOTION_DOT>.19E-6</MEAN_MOTION_DOT><MEAN_MOTION_DDOT>0</MEAN_MOTION_DDOT></tleParameters></data></segment></body></omm>
<omm id="CCSDS_OMM_VERS" version="2.0">
<header><CREATION_DATE/><ORIGINATOR/></header><body><segment><metadata><OBJECT_NAME>ONEWEB-0522</OBJECT_NAME><OBJECT_ID>2022-138AD</OBJECT_ID><CENTER_NAME>EARTH</CENTER_NAME><REF_FRAME>TEME</REF_FRAME><TIME_SYSTEM>UTC</TIME_SYSTEM><MEAN_ELEMENT_THEORY>SGP4</MEAN_ELEMENT_THEORY></metadata><data><meanElements><EPOCH>2025-06-01T14:49:54.768864</EPOCH><MEAN_MOTION>13.19725740</MEAN_MOTION><ECCENTRICITY>.0001831</ECCENTRICITY><INCLINATION>87.9226</INCLINATION><RA_OF_ASC_NODE>20.5956</RA_OF_ASC_NODE><ARG_OF_PERICENTER>86.2360</ARG_OF_PERICENTER><MEAN_ANOMALY>273.8983</MEAN_ANOMALY></meanElements><tleParameters><EPHEMERIS_TYPE>0</EPHEMERIS_TYPE><CLASSIFICATION_TYPE>U</CLASSIFICATION_TYPE><NORAD_CAT_ID>54140</NORAD_CAT_ID><ELEMENT_SET_NO>999</ELEMENT_SET_NO><REV_AT_EPOCH>12661</REV_AT_EPOCH><BSTAR>.26727E-4</BSTAR><MEAN_MOTION_DOT>.24E-6</MEAN_MOTION_DOT><MEAN_MOTION_DDOT>0</MEAN_MOTION_DDOT></tleParameters></data></segment></body></omm>
<omm id="CCSDS_OMM_VERS" version="2.0">
<header><CREATION_DATE/><ORIGINATOR/></header><body><segment><metadata><OBJECT_NAME>ONEWEB-0523</OBJECT_NAME><OBJECT_ID>2022-138AE</OBJECT_ID><CENTER_NAME>EARTH</CENTER_NAME><REF_FRAME>TEME</REF_FRAME><TIME_SYSTEM>UTC</TIME_SYSTEM><MEAN_ELEMENT_THEORY>SGP4</MEAN_ELEMENT_THEORY></metadata><data><meanElements><EPOCH>2025-06-01T12:05:56.313600</EPOCH><MEAN_MOTION>13.20770948</MEAN_MOTION><ECCENTRICITY>.0002561</ECCENTRICITY><INCLINATION>87.9263</INCLINATION><RA_OF_ASC_NODE>350.2576</RA_OF_ASC_NODE><ARG_OF_PERICENTER>75.8837</ARG_OF_PERICENTER><MEAN_ANOMALY>284.2580</MEAN_ANOMALY></meanElements><tleParameters><EPHEMERIS_TYPE>0</EPHEMERIS_TYPE><CLASSIFICATION_TYPE>U</CLASSIFICATION_TYPE><NORAD_CAT_ID>54141</NORAD_CAT_ID><ELEMENT_SET_NO>999</ELEMENT_SET_NO><REV_AT_EPOCH>12905</REV_AT_EPOCH><BSTAR>.11669E-3</BSTAR><MEAN_MOTION_DOT>.6E-6</MEAN_MOTION_DOT><MEAN_MOTION_DDOT>0</MEAN_MOTION_DDOT></tleParameters></data></segment></body></omm>
<omm id="CCSDS_OMM_VERS" version="2.0">
<header><CREATION_DATE/><ORIGINATOR/></header><body><segment><metadata><OBJECT_NAME>ONEWEB-0524</OBJECT_NAME><OBJECT_ID>2022-138AF</OBJECT_ID><CENTER_NAME>EARTH</CENTER_NAME><REF_FRAME>TEME</REF_FRAME><TIME_SYSTEM>UTC</TIME_SYSTEM><MEAN_ELEMENT_THEORY>SGP4</MEAN_ELEMENT_THEORY></metadata><data><meanElements><EPOCH>2025-06-01T13:39:07.112448</EPOCH><MEAN_MOTION>13.20771042</MEAN_MOTION><ECCENTRICITY>.0002728</ECCENTRICITY><INCLINATION>87.9263</INCLINATION><RA_OF_ASC_NODE>350.2466</RA_OF_ASC_NODE><ARG_OF_PERICENTER>96.6610</ARG_OF_PERICENTER><MEAN_ANOMALY>263.4834</MEAN_ANOMALY></meanElements><tleParameters><EPHEMERIS_TYPE>0</EPHEMERIS_TYPE><CLASSIFICATION_TYPE>U</CLASSIFICATION_TYPE><NORAD_CAT_ID>54142</NORAD_CAT_ID><ELEMENT_SET_NO>999</ELEMENT_SET_NO><REV_AT_EPOCH>12906</REV_AT_EPOCH><BSTAR>.2391E-3</BSTAR><MEAN_MOTION_DOT>.11E-5</MEAN_MOTION_DOT><MEAN_MOTION_DDOT>0</MEAN_MOTION_DDOT></tleParameters></data></segment></body></omm>
<omm id="CCSDS_OMM_VERS" version="2.0">
<header><CREATION_DATE/><ORIGINATOR/></header><body><segment><metadata><OBJECT_NAME>ONEWEB-0525</OBJECT_NAME><OBJECT_ID>2022-138AG</OBJECT_ID><CENTER_NAME>EARTH</CENTER_NAME><REF_FRAME>TEME</REF_FRAME><TIME_SYSTEM>UTC</TIME_SYSTEM><MEAN_ELEMENT_THEORY>SGP4</MEAN_ELEMENT_THEORY></metadata><data><meanElements><EPOCH>2025-06-01T08:00:29.917440</EPOCH><MEAN_MOTION>13.19726113</MEAN_MOTION><ECCENTRICITY>.0001605</ECCENTRICITY><INCLINATION>87.9229</INCLINATION><RA_OF_ASC_NODE>20.6703</RA_OF_ASC_NODE><ARG_OF_PERICENTER>91.3049</ARG_OF_PERICENTER><MEAN_ANOMALY>268.8267</MEAN_ANOMALY></meanElements><tleParameters><EPHEMERIS_TYPE>0</EPHEMERIS_TYPE><CLASSIFICATION_TYPE>U</CLASSIFICATION_TYPE><NORAD_CAT_ID>54143</NORAD_CAT_ID><ELEMENT_SET_NO>999</ELEMENT_SET_NO><REV_AT_EPOCH>12659</REV_AT_EPOCH><BSTAR>.12232E-3</BSTAR><MEAN_MOTION_DOT>.62E-6</MEAN_MOTION_DOT><MEAN_MOTION_DDOT>0</MEAN_MOTION_DDOT></tleParameters></data></segment></body></omm>
<omm id="CCSDS_OMM_VERS" version="2.0">
<header><CREATION_DATE/><ORIGINATOR/></header><body><segment><metadata><OBJECT_NAME>ONEWEB-0526</OBJECT_NAME><OBJECT_ID>2022-138AH</OBJECT_ID><CENTER_NAME>EARTH</CENTER_NAME><REF_FRAME>TEME</REF_FRAME><TIME_SYSTEM>UTC</TIME_SYSTEM><MEAN_ELEMENT_THEORY>SGP4</MEAN_ELEMENT_THEORY></metadata><data><meanElements><EPOCH>2025-06-01T14:15:47.596896</EPOCH><MEAN_MOTION>13.19724842</MEAN_MOTION><ECCENTRICITY>.0001809</ECCENTRICITY><INCLINATION>87.9226</INCLINATION><RA_OF_ASC_NODE>20.6074</RA_OF_ASC_NODE><ARG_OF_PERICENTER>86.1340</ARG_OF_PERICENTER><MEAN_ANOMALY>273.9999</MEAN_ANOMALY></meanElements><tleParameters><EPHEMERIS_TYPE>0</EPHEMERIS_TYPE><CLASSIFICATION_TYPE>U</CLASSIFICATION_TYPE><NORAD_CAT_ID>54144</NORAD_CAT_ID><ELEMENT_SET_NO>999</ELEMENT_SET_NO><REV_AT_EPOCH>12660</REV_AT_EPOCH><BSTAR>.22875E-4</BSTAR><MEAN_MOTION_DOT>.22E-6</MEAN_MOTION_DOT><MEAN_MOTION_DDOT>0</MEAN_MOTION_DDOT></tleParameters></data></segment></body></omm>
<omm id="CCSDS_OMM_VERS" version="2.0">
<header><CREATION_DATE/><ORIGINATOR/></header><body><segment><metadata><OBJECT_NAME>ONEWEB-0529</OBJECT_NAME><OBJECT_ID>2022-138AJ</OBJECT_ID><CENTER_NAME>EARTH</CENTER_NAME><REF_FRAME>TEME</REF_FRAME><TIME_SYSTEM>UTC</TIME_SYSTEM><MEAN_ELEMENT_THEORY>SGP4</MEAN_ELEMENT_THEORY></metadata><data><meanElements><EPOCH>2025-06-01T14:20:20.698656</EPOCH><MEAN_MOTION>13.19725175</MEAN_MOTION><ECCENTRICITY>.0001684</ECCENTRICITY><INCLINATION>87.9234</INCLINATION><RA_OF_ASC_NODE>20.6477</RA_OF_ASC_NODE><ARG_OF_PERICENTER>90.8757</ARG_OF_PERICENTER><MEAN_ANOMALY>269.2569</MEAN_ANOMALY></meanElements><tleParameters><EPHEMERIS_TYPE>0</EPHEMERIS_TYPE><CLASSIFICATION_TYPE>U</CLASSIFICATION_TYPE><NORAD_CAT_ID>54145</NORAD_CAT_ID><ELEMENT_SET_NO>999</ELEMENT_SET_NO><REV_AT_EPOCH>12662</REV_AT_EPOCH><BSTAR>.92742E-4</BSTAR><MEAN_MOTION_DOT>.5E-6</MEAN_MOTION_DOT><MEAN_MOTION_DDOT>0</MEAN_MOTION_DDOT></tleParameters></data></segment></body></omm>

</ndm>
